[{"OBJECT_NAME":"COSMOS 2350","OBJECT_ID":"1998-025A","EPOCH":"2026-03-03T21:35:38.635872","MEAN_MOTION":1.00284481,"ECCENTRICITY":0.0004679,"INCLINATION":13.9247,"RA_OF_ASC_NODE":4.6127,"ARG_OF_PERICENTER":195.126,"MEAN_ANOMALY":357.9192,"EPHEMERIS_TYPE":0,"CLASSIFICATION_TYPE":"U","NORAD_CAT_ID":25315,"ELEMENT_SET_NO":999,"REV_AT_EPOCH":10195,"BSTAR":0,"MEAN_MOTION_DOT":-9.2e-7,"MEAN_MOTION_DDOT":0},{"OBJECT_NAME":"SL-12 R/B(2)","OBJECT_ID":"1998-025D","EPOCH":"2026-03-03T23:41:11.335200","MEAN_MOTION":1.00043381,"ECCENTRICITY":0.0029196,"INCLINATION":13.9485,"RA_OF_ASC_NODE":4.65,"ARG_OF_PERICENTER":131.7035,"MEAN_ANOMALY":243.0627,"EPHEMERIS_TYPE":0,"CLASSIFICATION_TYPE":"U","NORAD_CAT_ID":25318,"ELEMENT_SET_NO":999,"REV_AT_EPOCH":10172,"BSTAR":0,"MEAN_MOTION_DOT":7.7e-7,"MEAN_MOTION_DDOT":0},{"OBJECT_NAME":"BADR-3 (ARABSAT-3A)","OBJECT_ID":"1999-009A","EPOCH":"2026-03-04T02:55:38.762688","MEAN_MOTION":1.0012487,"ECCENTRICITY":0.0007396,"INCLINATION":11.7647,"RA_OF_ASC_NODE":33.321,"ARG_OF_PERICENTER":316.5832,"MEAN_ANOMALY":91.9614,"EPHEMERIS_TYPE":0,"CLASSIFICATION_TYPE":"U","NORAD_CAT_ID":25638,"ELEMENT_SET_NO":999,"REV_AT_EPOCH":9891,"BSTAR":0,"MEAN_MOTION_DOT":2.2e-7,"MEAN_MOTION_DDOT":0},{"OBJECT_NAME":"RADUGA-1 4","OBJECT_ID":"1999-010A","EPOCH":"2026-03-03T17:32:38.812128","MEAN_MOTION":1.00262098,"ECCENTRICITY":0.00074671,"INCLINATION":15.6117,"RA_OF_ASC_NODE":2.5045,"ARG_OF_PERICENTER":287.2277,"MEAN_ANOMALY":248.5908,"EPHEMERIS_TYPE":0,"CLASSIFICATION_TYPE":"U","NORAD_CAT_ID":25642,"ELEMENT_SET_NO":999,"REV_AT_EPOCH":9889,"BSTAR":0,"MEAN_MOTION_DOT":-3.8e-6,"MEAN_MOTION_DDOT":0},{"OBJECT_NAME":"TELKOM 1","OBJECT_ID":"1999-042A","EPOCH":"2026-03-04T00:44:33.828576","MEAN_MOTION":1.00249392,"ECCENTRICITY":0.0017371,"INCLINATION":7.4205,"RA_OF_ASC_NODE":67.5062,"ARG_OF_PERICENTER":256.9445,"MEAN_ANOMALY":292.3145,"EPHEMERIS_TYPE":0,"CLASSIFICATION_TYPE":"U","NORAD_CAT_ID":25880,"ELEMENT_SET_NO":999,"REV_AT_EPOCH":9733,"BSTAR":0,"MEAN_MOTION_DOT":-1.79e-6,"MEAN_MOTION_DDOT":0},{"OBJECT_NAME":"ABS-7","OBJECT_ID":"1999-046A","EPOCH":"2026-03-04T03:02:05.644608","MEAN_MOTION":0.99968405,"ECCENTRICITY":0.0004788,"INCLINATION":6.2133,"RA_OF_ASC_NODE":72.037,"ARG_OF_PERICENTER":248.136,"MEAN_ANOMALY":92.696,"EPHEMERIS_TYPE":0,"CLASSIFICATION_TYPE":"U","NORAD_CAT_ID":25894,"ELEMENT_SET_NO":999,"REV_AT_EPOCH":9602,"BSTAR":0,"MEAN_MOTION_DOT":1.11e-6,"MEAN_MOTION_DDOT":0},{"OBJECT_NAME":"YAMAL 102","OBJECT_ID":"1999-047B","EPOCH":"2026-03-04T01:22:38.726688","MEAN_MOTION":0.9999537,"ECCENTRICITY":0.0005295,"INCLINATION":13.6087,"RA_OF_ASC_NODE":13.4732,"ARG_OF_PERICENTER":332.2309,"MEAN_ANOMALY":207.5239,"EPHEMERIS_TYPE":0,"CLASSIFICATION_TYPE":"U","NORAD_CAT_ID":25897,"ELEMENT_SET_NO":999,"REV_AT_EPOCH":9694,"BSTAR":0,"MEAN_MOTION_DOT":-6.0e-8,"MEAN_MOTION_DDOT":0},{"OBJECT_NAME":"ABS-6","OBJECT_ID":"1999-053A","EPOCH":"2026-03-03T21:40:37.891776","MEAN_MOTION":1.00271954,"ECCENTRICITY":0.0003054,"INCLINATION":0.0476,"RA_OF_ASC_NODE":260.1543,"ARG_OF_PERICENTER":62.9322,"MEAN_ANOMALY":322.7489,"EPHEMERIS_TYPE":0,"CLASSIFICATION_TYPE":"U","NORAD_CAT_ID":25924,"ELEMENT_SET_NO":999,"REV_AT_EPOCH":9678,"BSTAR":0,"MEAN_MOTION_DOT":-1.33e-6,"MEAN_MOTION_DDOT":0},{"OBJECT_NAME":"UFO 10 (USA 146)","OBJECT_ID":"1999-063A","EPOCH":"2026-03-04T03:39:39.543264","MEAN_MOTION":1.00273818,"ECCENTRICITY":0.0005299,"INCLINATION":9.8479,"RA_OF_ASC_NODE":27.7922,"ARG_OF_PERICENTER":294.7189,"MEAN_ANOMALY":231.4764,"EPHEMERIS_TYPE":0,"CLASSIFICATION_TYPE":"U","NORAD_CAT_ID":25967,"ELEMENT_SET_NO":999,"REV_AT_EPOCH":9629,"BSTAR":0,"MEAN_MOTION_DOT":-1.96e-6,"MEAN_MOTION_DDOT":0},{"OBJECT_NAME":"GALAXY 10R (G-10R)","OBJECT_ID":"2000-002A","EPOCH":"2026-03-03T20:37:05.945376","MEAN_MOTION":0.99639488,"ECCENTRICITY":0.0004056,"INCLINATION":12.0075,"RA_OF_ASC_NODE":32.0131,"ARG_OF_PERICENTER":207.7901,"MEAN_ANOMALY":167.8447,"EPHEMERIS_TYPE":0,"CLASSIFICATION_TYPE":"U","NORAD_CAT_ID":26056,"ELEMENT_SET_NO":999,"REV_AT_EPOCH":9528,"BSTAR":0,"MEAN_MOTION_DOT":-2.5e-6,"MEAN_MOTION_DDOT":0},{"OBJECT_NAME":"GARUDA 1","OBJECT_ID":"2000-011A","EPOCH":"2026-03-04T00:20:38.489568","MEAN_MOTION":0.99904331,"ECCENTRICITY":0.0005259,"INCLINATION":9.3957,"RA_OF_ASC_NODE":65.1672,"ARG_OF_PERICENTER":244.9033,"MEAN_ANOMALY":121.1271,"EPHEMERIS_TYPE":0,"CLASSIFICATION_TYPE":"U","NORAD_CAT_ID":26089,"ELEMENT_SET_NO":999,"REV_AT_EPOCH":4061,"BSTAR":0,"MEAN_MOTION_DOT":-1.06e-6,"MEAN_MOTION_DDOT":0},{"OBJECT_NAME":"SL-12 R/B(2)","OBJECT_ID":"2000-013D","EPOCH":"2026-03-03T23:38:34.087200","MEAN_MOTION":1.00759482,"ECCENTRICITY":0.0006352,"INCLINATION":14.3079,"RA_OF_ASC_NODE":1.6196,"ARG_OF_PERICENTER":60.6011,"MEAN_ANOMALY":306.5938,"EPHEMERIS_TYPE":0,"CLASSIFICATION_TYPE":"U","NORAD_CAT_ID":26101,"ELEMENT_SET_NO":999,"REV_AT_EPOCH":9558,"BSTAR":0,"MEAN_MOTION_DOT":5.3e-7,"MEAN_MOTION_DDOT":0},{"OBJECT_NAME":"ASIASTAR","OBJECT_ID":"2000-016A","EPOCH":"2026-03-03T23:07:52.029696","MEAN_MOTION":1.00271712,"ECCENTRICITY":0.0004552,"INCLINATION":8.886,"RA_OF_ASC_NODE":59.2678,"ARG_OF_PERICENTER":291.5573,"MEAN_ANOMALY":262.8739,"EPHEMERIS_TYPE":0,"CLASSIFICATION_TYPE":"U","NORAD_CAT_ID":26107,"ELEMENT_SET_NO":999,"REV_AT_EPOCH":9486,"BSTAR":0,"MEAN_MOTION_DOT":-3.43e-6,"MEAN_MOTION_DDOT":0},{"OBJECT_NAME":"GALAXY 4R (G-4R)","OBJECT_ID":"2000-020A","EPOCH":"2026-03-03T18:56:02.844384","MEAN_MOTION":0.99835666,"ECCENTRICITY":0.00066678,"INCLINATION":12.6082,"RA_OF_ASC_NODE":24.8429,"ARG_OF_PERICENTER":246.8977,"MEAN_ANOMALY":115.6125,"EPHEMERIS_TYPE":0,"CLASSIFICATION_TYPE":"U","NORAD_CAT_ID":26298,"ELEMENT_SET_NO":999,"REV_AT_EPOCH":9457,"BSTAR":0,"MEAN_MOTION_DOT":-2.87e-6,"MEAN_MOTION_DDOT":0},{"OBJECT_NAME":"USA 149 (DSP 20)","OBJECT_ID":"2000-024A","EPOCH":"2026-03-04T01:16:08.302368","MEAN_MOTION":1.00275993,"ECCENTRICITY":0.0002233,"INCLINATION":13.0915,"RA_OF_ASC_NODE":12.5906,"ARG_OF_PERICENTER":3.9949,"MEAN_ANOMALY":358.8834,"EPHEMERIS_TYPE":0,"CLASSIFICATION_TYPE":"U","NORAD_CAT_ID":26356,"ELEMENT_SET_NO":999,"REV_AT_EPOCH":3186,"BSTAR":0,"MEAN_MOTION_DOT":8.7e-7,"MEAN_MOTION_DDOT":0},{"OBJECT_NAME":"IUS R/B(2)","OBJECT_ID":"2000-024D","EPOCH":"2026-03-03T01:38:03.745824","MEAN_MOTION":0.99711849,"ECCENTRICITY":0.0005463,"INCLINATION":13.2412,"RA_OF_ASC_NODE":13.3319,"ARG_OF_PERICENTER":181.7582,"MEAN_ANOMALY":178.257,"EPHEMERIS_TYPE":0,"CLASSIFICATION_TYPE":"U","NORAD_CAT_ID":26359,"ELEMENT_SET_NO":999,"REV_AT_EPOCH":2431,"BSTAR":0,"MEAN_MOTION_DOT":-2.7e-7,"MEAN_MOTION_DDOT":0},{"OBJECT_NAME":"GORIZONT 33","OBJECT_ID":"2000-029A","EPOCH":"2026-03-03T19:39:21.192192","MEAN_MOTION":1.00157754,"ECCENTRICITY":0.0003198,"INCLINATION":13.8234,"RA_OF_ASC_NODE":7.5666,"ARG_OF_PERICENTER":262.2428,"MEAN_ANOMALY":280.4215,"EPHEMERIS_TYPE":0,"CLASSIFICATION_TYPE":"U","NORAD_CAT_ID":26372,"ELEMENT_SET_NO":999,"REV_AT_EPOCH":9437,"BSTAR":0,"MEAN_MOTION_DOT":-2.63e-6,"MEAN_MOTION_DDOT":0}]
