COSMOS 2350             
1 25315U 98025A   26062.89975273 -.00000092  00000+0  00000+0 0  9996
2 25315  13.9247   4.6127 0004679 195.1260 357.9192  1.00284481101954
SL-12 R/B(2)            
1 25318U 98025D   26062.98693675  .00000077  00000+0  00000+0 0  9994
2 25318  13.9485   4.6500 0029196 131.7035 243.0627  1.00043381101728
BADR-3 (ARABSAT-3A)     
1 25638U 99009A   26063.12197642  .00000022  00000+0  00000+0 0  9992
2 25638  11.7647  33.3210 0007396 316.5832  91.9614  1.00124870 98917
RADUGA-1 4              
1 25642U 99010A   26062.73100477 -.00000380  00000+0  00000+0 0  9993
2 25642  15.6117   2.5045 0007467 287.2277 248.5908  1.00262098 98895
TELKOM 1                
1 25880U 99042A   26063.03094709 -.00000179  00000+0  00000+0 0  9992
2 25880   7.4205  67.5062 0017371 256.9445 292.3145  1.00249392 97331
ABS-7                   
1 25894U 99046A   26063.12645422  .00000111  00000+0  00000+0 0  9990
2 25894   6.2133  72.0370 0004788 248.1360  92.6960  0.99968405 96024
YAMAL 102               
1 25897U 99047B   26063.05739267 -.00000006  00000+0  00000+0 0  9991
2 25897  13.6087  13.4732 0005295 332.2309 207.5239  0.99995370 96948
ABS-6                   
1 25924U 99053A   26062.90321634 -.00000133  00000+0  00000+0 0  9998
2 25924   0.0476 260.1543 0003054  62.9322 322.7489  1.00271954 96782
UFO 10 (USA 146)        
1 25967U 99063A   26063.15254101 -.00000196  00000+0  00000+0 0  9997
2 25967   9.8479  27.7922 0005299 294.7189 231.4764  1.00273818 96295
GALAXY 10R (G-10R)      
1 26056U 00002A   26062.85909659 -.00000250  00000+0  00000+0 0  9994
2 26056  12.0075  32.0131 0004056 207.7901 167.8447  0.99639488 95284
GARUDA 1                
1 26089U 00011A   26063.01433437 -.00000106  00000+0  00000+0 0  9995
2 26089   9.3957  65.1672 0005259 244.9033 121.1271  0.99904331 40617
SL-12 R/B(2)            
1 26101U 00013D   26062.98511675  .00000053  00000+0  00000+0 0  9998
2 26101  14.3079   1.6196 0006352  60.6011 306.5938  1.00759482 95586
ASIASTAR                
1 26107U 00016A   26062.96379664 -.00000343  00000+0  00000+0 0  9998
2 26107   8.8860  59.2678 0004552 291.5573 262.8739  1.00271712 94868
GALAXY 4R (G-4R)        
1 26298U 00020A   26062.78892181 -.00000287  00000+0  00000+0 0  9995
2 26298  12.6082  24.8429 0006667 246.8977 115.6125  0.99835666 94573
USA 149 (DSP 20)        
1 26356U 00024A   26063.05287387  .00000087  00000+0  00000+0 0  9998
2 26356  13.0915  12.5906 0002233   3.9949 358.8834  1.00275993 31863
IUS R/B(2)              
1 26359U 00024D   26062.06809891 -.00000027  00000+0  00000+0 0  9996
2 26359  13.2412  13.3319 0005463 181.7582 178.2570  0.99711849 24318
GORIZONT 33             
1 26372U 00029A   26062.81899528 -.00000263  00000+0  00000+0 0  9997
2 26372  13.8234   7.5666 0003198 262.2428 280.4215  1.00157754 94375
